[{"OBJECT_NAME":"INTELSAT 902 (IS-902)","OBJECT_ID":"2001-039A","EPOCH":"2026-04-05T06:03:02.614176","MEAN_MOTION":1.00271518,"ECCENTRICITY":0.00044786,"INCLINATION":5.9342,"RA_OF_ASC_NODE":72.6583,"ARG_OF_PERICENTER":299.8415,"MEAN_ANOMALY":221.7264,"EPHEMERIS_TYPE":0,"CLASSIFICATION_TYPE":"U","NORAD_CAT_ID":26900,"ELEMENT_SET_NO":999,"REV_AT_EPOCH":8996,"BSTAR":0,"MEAN_MOTION_DOT":-2.8e-6,"MEAN_MOTION_DDOT":0},{"OBJECT_NAME":"INTELSAT 904 (IS-904)","OBJECT_ID":"2002-007A","EPOCH":"2026-04-05T05:45:03.443616","MEAN_MOTION":1.00272843,"ECCENTRICITY":0.0007563,"INCLINATION":6.7388,"RA_OF_ASC_NODE":70.0467,"ARG_OF_PERICENTER":327.3343,"MEAN_ANOMALY":210.958,"EPHEMERIS_TYPE":0,"CLASSIFICATION_TYPE":"U","NORAD_CAT_ID":27380,"ELEMENT_SET_NO":999,"REV_AT_EPOCH":5103,"BSTAR":0,"MEAN_MOTION_DOT":-2.22e-6,"MEAN_MOTION_DDOT":0},{"OBJECT_NAME":"DIRECTV 5 (TEMPO 1)","OBJECT_ID":"2002-023A","EPOCH":"2026-04-05T01:57:10.557216","MEAN_MOTION":1.00272937,"ECCENTRICITY":0.0003819,"INCLINATION":4.6917,"RA_OF_ASC_NODE":76.2055,"ARG_OF_PERICENTER":311.2444,"MEAN_ANOMALY":85.1347,"EPHEMERIS_TYPE":0,"CLASSIFICATION_TYPE":"U","NORAD_CAT_ID":27426,"ELEMENT_SET_NO":999,"REV_AT_EPOCH":8739,"BSTAR":0,"MEAN_MOTION_DOT":-5.5e-7,"MEAN_MOTION_DDOT":0},{"OBJECT_NAME":"INTELSAT 905 (IS-905)","OBJECT_ID":"2002-027A","EPOCH":"2026-04-03T01:54:25.943616","MEAN_MOTION":1.00273159,"ECCENTRICITY":0.00032672,"INCLINATION":6.5662,"RA_OF_ASC_NODE":70.6915,"ARG_OF_PERICENTER":315.6989,"MEAN_ANOMALY":56.4288,"EPHEMERIS_TYPE":0,"CLASSIFICATION_TYPE":"U","NORAD_CAT_ID":27438,"ELEMENT_SET_NO":999,"REV_AT_EPOCH":5061,"BSTAR":0,"MEAN_MOTION_DOT":9.4e-7,"MEAN_MOTION_DDOT":0},{"OBJECT_NAME":"GALAXY 3C (G-3C)","OBJECT_ID":"2002-030A","EPOCH":"2026-04-05T02:01:32.637792","MEAN_MOTION":1.00272003,"ECCENTRICITY":0.00016597,"INCLINATION":3.5417,"RA_OF_ASC_NODE":78.9783,"ARG_OF_PERICENTER":20.8024,"MEAN_ANOMALY":29.1384,"EPHEMERIS_TYPE":0,"CLASSIFICATION_TYPE":"U","NORAD_CAT_ID":27445,"ELEMENT_SET_NO":999,"REV_AT_EPOCH":4576,"BSTAR":0,"MEAN_MOTION_DOT":-1.5e-6,"MEAN_MOTION_DDOT":0},{"OBJECT_NAME":"INTELSAT 906 (IS-906)","OBJECT_ID":"2002-041A","EPOCH":"2026-04-05T00:17:38.770656","MEAN_MOTION":1.00272237,"ECCENTRICITY":0.00033439,"INCLINATION":5.6178,"RA_OF_ASC_NODE":73.806,"ARG_OF_PERICENTER":310.7969,"MEAN_ANOMALY":237.2741,"EPHEMERIS_TYPE":0,"CLASSIFICATION_TYPE":"U","NORAD_CAT_ID":27513,"ELEMENT_SET_NO":999,"REV_AT_EPOCH":8629,"BSTAR":0,"MEAN_MOTION_DOT":1.6e-7,"MEAN_MOTION_DDOT":0},{"OBJECT_NAME":"GALAXY 13 (HORIZONS-1)","OBJECT_ID":"2003-044A","EPOCH":"2026-04-05T05:11:14.444160","MEAN_MOTION":1.0026954,"ECCENTRICITY":0.00021481,"INCLINATION":1.2303,"RA_OF_ASC_NODE":84.7633,"ARG_OF_PERICENTER":285.5501,"MEAN_ANOMALY":111.02,"EPHEMERIS_TYPE":0,"CLASSIFICATION_TYPE":"U","NORAD_CAT_ID":27954,"ELEMENT_SET_NO":999,"REV_AT_EPOCH":4584,"BSTAR":0,"MEAN_MOTION_DOT":1.34e-6,"MEAN_MOTION_DDOT":0},{"OBJECT_NAME":"INTELSAT 10-02","OBJECT_ID":"2004-022A","EPOCH":"2026-04-05T05:53:40.118208","MEAN_MOTION":1.0027232,"ECCENTRICITY":0.00019855,"INCLINATION":0.0402,"RA_OF_ASC_NODE":43.8323,"ARG_OF_PERICENTER":32.9198,"MEAN_ANOMALY":204.2058,"EPHEMERIS_TYPE":0,"CLASSIFICATION_TYPE":"U","NORAD_CAT_ID":28358,"ELEMENT_SET_NO":999,"REV_AT_EPOCH":7982,"BSTAR":0,"MEAN_MOTION_DOT":-1.0e-7,"MEAN_MOTION_DDOT":0},{"OBJECT_NAME":"DIRECTV 8","OBJECT_ID":"2005-019A","EPOCH":"2026-04-05T02:55:38.595936","MEAN_MOTION":1.00272284,"ECCENTRICITY":0.00034119,"INCLINATION":0.0256,"RA_OF_ASC_NODE":106.3454,"ARG_OF_PERICENTER":283.2107,"MEAN_ANOMALY":88.7319,"EPHEMERIS_TYPE":0,"CLASSIFICATION_TYPE":"U","NORAD_CAT_ID":28659,"ELEMENT_SET_NO":999,"REV_AT_EPOCH":7634,"BSTAR":0,"MEAN_MOTION_DOT":2.0e-8,"MEAN_MOTION_DDOT":0},{"OBJECT_NAME":"GALAXY 28 (G-28)","OBJECT_ID":"2005-022A","EPOCH":"2026-04-05T05:46:18.323904","MEAN_MOTION":1.00270483,"ECCENTRICITY":0.00022794,"INCLINATION":3.1109,"RA_OF_ASC_NODE":79.8195,"ARG_OF_PERICENTER":301.6767,"MEAN_ANOMALY":231.5259,"EPHEMERIS_TYPE":0,"CLASSIFICATION_TYPE":"U","NORAD_CAT_ID":28702,"ELEMENT_SET_NO":999,"REV_AT_EPOCH":5124,"BSTAR":0,"MEAN_MOTION_DOT":-1.98e-6,"MEAN_MOTION_DDOT":0},{"OBJECT_NAME":"GALAXY 16 (G-16)","OBJECT_ID":"2006-023A","EPOCH":"2026-04-05T03:46:38.460576","MEAN_MOTION":1.00272603,"ECCENTRICITY":0.00028584,"INCLINATION":0.0167,"RA_OF_ASC_NODE":206.5607,"ARG_OF_PERICENTER":176.7629,"MEAN_ANOMALY":127.7917,"EPHEMERIS_TYPE":0,"CLASSIFICATION_TYPE":"U","NORAD_CAT_ID":29236,"ELEMENT_SET_NO":999,"REV_AT_EPOCH":7224,"BSTAR":0,"MEAN_MOTION_DOT":-1.26e-6,"MEAN_MOTION_DDOT":0},{"OBJECT_NAME":"DIRECTV 9S","OBJECT_ID":"2006-043A","EPOCH":"2026-04-05T03:46:38.460576","MEAN_MOTION":1.00272073,"ECCENTRICITY":0.00038455,"INCLINATION":2.2324,"RA_OF_ASC_NODE":81.7643,"ARG_OF_PERICENTER":310.6583,"MEAN_ANOMALY":116.5039,"EPHEMERIS_TYPE":0,"CLASSIFICATION_TYPE":"U","NORAD_CAT_ID":29494,"ELEMENT_SET_NO":999,"REV_AT_EPOCH":5065,"BSTAR":0,"MEAN_MOTION_DOT":-1.11e-6,"MEAN_MOTION_DDOT":0},{"OBJECT_NAME":"GALAXY 17 (G-17)","OBJECT_ID":"2007-016B","EPOCH":"2026-04-05T04:11:38.812992","MEAN_MOTION":1.00271599,"ECCENTRICITY":0.0004089,"INCLINATION":2.7876,"RA_OF_ASC_NODE":80.7993,"ARG_OF_PERICENTER":308.7942,"MEAN_ANOMALY":141.7925,"EPHEMERIS_TYPE":0,"CLASSIFICATION_TYPE":"U","NORAD_CAT_ID":31307,"ELEMENT_SET_NO":999,"REV_AT_EPOCH":6907,"BSTAR":0,"MEAN_MOTION_DOT":-2.04e-6,"MEAN_MOTION_DDOT":0},{"OBJECT_NAME":"INTELSAT 11 (IS-11)","OBJECT_ID":"2007-044B","EPOCH":"2026-04-05T00:52:21.737280","MEAN_MOTION":0.99047766,"ECCENTRICITY":0.00027524,"INCLINATION":3.3751,"RA_OF_ASC_NODE":79.5406,"ARG_OF_PERICENTER":222.253,"MEAN_ANOMALY":352.1359,"EPHEMERIS_TYPE":0,"CLASSIFICATION_TYPE":"U","NORAD_CAT_ID":32253,"ELEMENT_SET_NO":999,"REV_AT_EPOCH":6772,"BSTAR":0,"MEAN_MOTION_DOT":3.0e-8,"MEAN_MOTION_DDOT":0},{"OBJECT_NAME":"HORIZONS-2","OBJECT_ID":"2007-063B","EPOCH":"2026-04-05T04:52:03.888192","MEAN_MOTION":1.00270603,"ECCENTRICITY":0.00028689,"INCLINATION":2.414,"RA_OF_ASC_NODE":81.5122,"ARG_OF_PERICENTER":306.8067,"MEAN_ANOMALY":164.3962,"EPHEMERIS_TYPE":0,"CLASSIFICATION_TYPE":"U","NORAD_CAT_ID":32388,"ELEMENT_SET_NO":999,"REV_AT_EPOCH":6708,"BSTAR":0,"MEAN_MOTION_DOT":-2.51e-6,"MEAN_MOTION_DDOT":0},{"OBJECT_NAME":"DIRECTV 11","OBJECT_ID":"2008-013A","EPOCH":"2026-04-04T22:35:02.172768","MEAN_MOTION":1.00272596,"ECCENTRICITY":3.386e-5,"INCLINATION":0.0215,"RA_OF_ASC_NODE":28.7272,"ARG_OF_PERICENTER":318.5547,"MEAN_ANOMALY":85.5298,"EPHEMERIS_TYPE":0,"CLASSIFICATION_TYPE":"U","NORAD_CAT_ID":32729,"ELEMENT_SET_NO":999,"REV_AT_EPOCH":4485,"BSTAR":0,"MEAN_MOTION_DOT":-1.25e-6,"MEAN_MOTION_DDOT":0},{"OBJECT_NAME":"GALAXY 18 (G-18)","OBJECT_ID":"2008-024A","EPOCH":"2026-04-05T05:18:58.702464","MEAN_MOTION":1.0027177,"ECCENTRICITY":0.00030935,"INCLINATION":0.0167,"RA_OF_ASC_NODE":201.9501,"ARG_OF_PERICENTER":179.7548,"MEAN_ANOMALY":128.5722,"EPHEMERIS_TYPE":0,"CLASSIFICATION_TYPE":"U","NORAD_CAT_ID":32951,"ELEMENT_SET_NO":999,"REV_AT_EPOCH":4512,"BSTAR":0,"MEAN_MOTION_DOT":0,"MEAN_MOTION_DDOT":0}]
