INTELSAT 902 (IS-902)   
1 26900U 01039A   26095.25211359 -.00000280  00000+0  00000+0 0  9999
2 26900   5.9342  72.6583 0004478 299.8415 221.7264  1.00271518 89965
INTELSAT 904 (IS-904)   
1 27380U 02007A   26095.23962319 -.00000222  00000+0  00000+0 0  9991
2 27380   6.7388  70.0467 0007563 327.3343 210.9580  1.00272843 51035
DIRECTV 5 (TEMPO 1)     
1 27426U 02023A   26095.08137219 -.00000055  00000+0  00000+0 0  9990
2 27426   4.6917  76.2055 0003819 311.2444  85.1347  1.00272937 87391
INTELSAT 905 (IS-905)   
1 27438U 02027A   26093.07946694  .00000094  00000+0  00000+0 0  9991
2 27438   6.5662  70.6915 0003267 315.6989  56.4288  1.00273159 50611
GALAXY 3C (G-3C)        
1 27445U 02030A   26095.08440553 -.00000150  00000+0  00000+0 0  9993
2 27445   3.5417  78.9783 0001659  20.8024  29.1384  1.00272003 45767
INTELSAT 906 (IS-906)   
1 27513U 02041A   26095.01225429  .00000016  00000+0  00000+0 0  9997
2 27513   5.6178  73.8060 0003343 310.7969 237.2741  1.00272237 86294
GALAXY 13 (HORIZONS-1)  
1 27954U 03044A   26095.21613940  .00000134  00000+0  00000+0 0  9992
2 27954   1.2303  84.7633 0002148 285.5501 111.0200  1.00269540 45843
INTELSAT 10-02          
1 28358U 04022A   26095.24560322 -.00000010  00000+0  00000+0 0  9990
2 28358   0.0402  43.8323 0001985  32.9198 204.2058  1.00272320 79826
DIRECTV 8               
1 28659U 05019A   26095.12197449  .00000002  00000+0  00000+0 0  9994
2 28659   0.0256 106.3454 0003411 283.2107  88.7319  1.00272284 76342
GALAXY 28 (G-28)        
1 28702U 05022A   26095.24048986 -.00000198  00000+0  00000+0 0  9998
2 28702   3.1109  79.8195 0002279 301.6767 231.5259  1.00270483 51248
GALAXY 16 (G-16)        
1 29236U 06023A   26095.15738959 -.00000126  00000+0  00000+0 0  9990
2 29236   0.0167 206.5607 0002858 176.7629 127.7917  1.00272603 72245
DIRECTV 9S              
1 29494U 06043A   26095.15738959 -.00000111  00000+0  00000+0 0  9992
2 29494   2.2324  81.7643 0003845 310.6583 116.5039  1.00272073 50651
GALAXY 17 (G-17)        
1 31307U 07016B   26095.17475478 -.00000204  00000+0  00000+0 0  9998
2 31307   2.7876  80.7993 0004089 308.7942 141.7925  1.00271599 69071
INTELSAT 11 (IS-11)     
1 32253U 07044B   26095.03636270  .00000003  00000+0  00000+0 0  9990
2 32253   3.3751  79.5406 0002752 222.2530 352.1359  0.99047766 67727
HORIZONS-2              
1 32388U 07063B   26095.20282278 -.00000251  00000+0  00000+0 0  9990
2 32388   2.4140  81.5122 0002868 306.8067 164.3962  1.00270603 67081
DIRECTV 11              
1 32729U 08013A   26094.94099737 -.00000125  00000+0  00000+0 0  9991
2 32729   0.0215  28.7272 0000338 318.5547  85.5298  1.00272596 44858
GALAXY 18 (G-18)        
1 32951U 08024A   26095.22151276  .00000000  00000+0  00000+0 0  9990
2 32951   0.0167 201.9501 0003093 179.7548 128.5722  1.00271770 45124
